{
    "links": {
        "self": "http://www.neowsapp.com/rest/v1/neo/3753919?api_key=iIulBulltgU6a56xZRHN4H3l9WmuAYTsLGpBGhQ2"
    },
    "id": "3753919",
    "neo_reference_id": "3753919",
    "name": "(2016 LV47)",
    "designation": "2016 LV47",
    "nasa_jpl_url": "http://ssd.jpl.nasa.gov/sbdb.cgi?sstr=3753919",
    "absolute_magnitude_h": 20.0,
    "estimated_diameter": {
        "kilometers": {
            "estimated_diameter_min": 0.2658,
            "estimated_diameter_max": 0.5943468684
        },
        "meters": {
            "estimated_diameter_min": 265.8,
            "estimated_diameter_max": 594.3468684194
        },
        "miles": {
            "estimated_diameter_min": 0.1651604118,
            "estimated_diameter_max": 0.369309908
        },
        "feet": {
            "estimated_diameter_min": 872.047272,
            "estimated_diameter_max": 1949.9569797852
        }
    },
    "is_potentially_hazardous_asteroid": true,
    "close_approach_data": [
        {
            "close_approach_date": "1934-05-10",
            "close_approach_date_full": "1934-May-10 01:41",
            "epoch_date_close_approach": -1124921940000,
            "relative_velocity": {
                "kilometers_per_second": "39.5757518759",
                "kilometers_per_hour": "142472.7067532476",
                "miles_per_hour": "88526.9993712054"
            },
            "miss_distance": {
                "astronomical": "0.0829419075",
                "lunar": "32.2644020175",
                "kilometers": "12407932.695737025",
                "miles": "7709931.862839945"
            },
            "orbiting_body": "Venus"
        },
        {
            "close_approach_date": "2016-06-23",
            "close_approach_date_full": "2016-Jun-23 18:51",
            "epoch_date_close_approach": 1466707860000,
            "relative_velocity": {
                "kilometers_per_second": "36.0870036778",
                "kilometers_per_hour": "129913.2132401048",
                "miles_per_hour": "80723.0185268863"
            },
            "miss_distance": {
                "astronomical": "0.1583533508",
                "lunar": "61.5994534612",
                "kilometers": "23689323.987042796",
                "miles": "14719863.3564147448"
            },
            "orbiting_body": "Earth"
        }
    ],
    "orbital_data": {
        "orbit_id": "6",
        "orbit_determination_date": "2017-08-10 06:19:58",
        "first_observation_date": "2016-06-08",
        "last_observation_date": "2016-06-20",
        "data_arc_in_days": 12,
        "observations_used": 34,
        "orbit_uncertainty": "9",
        "minimum_orbit_intersection": ".0337006",
        "jupiter_tisserand_invariant": "3.459",
        "epoch_osculation": "2457551.5",
        "eccentricity": ".8647795510149785",
        "semi_major_axis": "1.801331867518383",
        "inclination": "15.24133294361886",
        "ascending_node_longitude": "92.18444991734366",
        "orbital_period": "883.0575849324542",
        "perihelion_distance": ".243576903896863",
        "perihelion_argument": "317.0973733935764",
        "aphelion_distance": "3.359086831139903",
        "perihelion_time": "2457602.274374157931",
        "mean_anomaly": "339.3005858182473",
        "mean_motion": ".4076744327240411",
        "equinox": "J2000",
        "orbit_class": {
            "orbit_class_type": "APO",
            "orbit_class_description": "Near-Earth asteroid orbits which cross the Earth’s orbit similar to that of 1862 Apollo",
            "orbit_class_range": "a (semi-major axis) > 1.0 AU; q (perihelion) < 1.017 AU"
        }
    },
    "is_sentry_object": false
}